OBJECT_NAME,OBJECT_ID,EPOCH,MEAN_MOTION,ECCENTRICITY,INCLINATION,RA_OF_ASC_NODE,ARG_OF_PERICENTER,MEAN_ANOMALY,EPHEMERIS_TYPE,CLASSIFICATION_TYPE,NORAD_CAT_ID,ELEMENT_SET_NO,REV_AT_EPOCH,BSTAR,MEAN_MOTION_DOT,MEAN_MOTION_DDOT
H-2A R/B,2006-002B,2026-07-05T02:43:56.106912,15.18330135,.00501762,98.2589,343.5691,200.3885,159.5344,0,U,28932,999,11224,.64495308E-3,.13614E-3,0
RESURS-DK 1,2006-021A,2026-07-05T06:42:23.266944,15.13295412,.00066968,69.9335,292.7185,282.2726,77.7691,0,U,29228,999,10531,.17117836E-3,.2947E-4,0
CZ-4B R/B,2006-046C,2026-07-05T04:25:32.185056,15.17926951,.0031622,97.5438,230.7362,217.3905,142.5128,0,U,29507,999,7786,.32917235E-3,.6696E-4,0
CZ-2C R/B,2007-010B,2026-07-05T05:39:16.505280,14.20280281,.00580451,98.4113,293.7052,313.2684,46.3658,0,U,31114,999,99640,.72507745E-4,.116E-5,0
COSMO-SKYMED 1,2007-023A,2026-07-05T07:32:24.497952,14.97190320,.00011008,97.8851,18.3232,84.0232,276.1115,0,U,31598,999,3250,.24880548E-3,.2817E-4,0
COSMOS 2428,2007-029A,2026-07-04T15:07:37.068960,14.12929556,.00071506,70.9380,317.8526,101.6390,258.5534,0,U,31792,999,98061,.90552675E-4,.121E-5,0
SL-16 R/B,2007-029B,2026-07-05T04:47:32.167104,14.14851907,.00022981,70.9761,285.3644,260.3231,115.5050,0,U,31793,999,98199,-.79400897E-4,-.201E-5,0
KORONAS-FOTON,2009-003A,2026-07-04T21:05:53.970432,15.46116868,.00125874,82.4302,153.7985,93.7739,266.4950,0,U,33504,999,96383,.38654644E-3,.19038E-3,0
CZ-2C R/B,2011-030B,2026-07-04T14:56:37.182912,14.81517665,.00515283,97.8663,140.6952,331.3224,202.2500,0,U,37731,999,80740,.22760097E-3,.1771E-4,0
H-2A R/B,2012-025E,2026-07-05T00:26:11.589216,14.95810124,.00422125,98.4840,162.6353,289.3719,70.2939,0,U,38341,999,76575,.37404067E-3,.418E-4,0
SHIJIAN-16 (SJ-16),2013-057A,2026-07-05T08:04:39.922752,14.92659894,.00161834,74.9741,322.3057,188.6042,171.4872,0,U,39358,999,68905,.78781549E-3,.812E-4,0
SL-4 R/B,2014-021B,2026-07-04T22:47:03.675840,15.42324553,.00902452,51.6060,123.7321,170.8310,189.4349,0,U,39679,999,67435,.35129491E-3,.17435E-3,0
ALOS-2,2014-029A,2026-07-05T01:29:05.864352,14.79477316,.00016658,97.9228,282.9699,89.5658,270.5745,0,U,39766,999,65422,.80746333E-4,.552E-5,0
YAOGAN-29,2015-069A,2026-07-05T07:50:21.467904,14.83102756,.00015402,98.0017,214.9878,28.4877,331.6420,0,U,41038,999,57331,.11527751E-3,.885E-5,0
ASTRO-H (HITOMI),2016-012A,2026-07-04T17:50:29.603616,15.10599781,.00095656,31.0003,320.7997,69.4595,290.7069,0,U,41337,999,56994,.24502147E-3,.4247E-4,0
HXMT (HUIYAN),2017-034A,2026-07-05T03:46:00.147360,15.18624619,.00328107,43.0140,82.9714,259.6248,100.0902,0,U,42758,999,50039,.35112862E-3,.7269E-4,0
SAOCOM 1A,2018-076A,2026-07-05T07:06:46.374048,14.82163382,.00015705,97.8885,12.7810,80.3214,279.8176,0,U,43641,999,41878,.82852796E-4,.608E-5,0
H-2A R/B,2018-084L,2026-07-04T14:37:38.836128,15.45870427,.00213133,98.8545,68.3133,339.4411,20.5974,0,U,43682,999,42381,.86126947E-3,.42251E-3,0
SAOCOM 1B,2020-059A,2026-07-05T07:51:44.430048,14.82151089,.00015398,97.8888,11.9072,81.5209,278.6179,0,U,46265,999,31617,.1927785E-4,.101E-5,0
CSS (TIANHE),2021-035A,2026-07-05T05:10:03.903744,15.57977003,.00028885,41.4675,212.3196,272.5684,87.4823,0,U,48274,999,29598,.22739435E-3,.17226E-3,0
COSMOS 2550,2021-056A,2026-07-05T05:12:32.852160,15.33755958,.00083952,67.1430,45.3665,273.0382,86.9812,0,U,48865,999,28148,.22786667E-3,.7295E-4,0
CZ-2C R/B,2022-058K,2026-07-05T02:02:19.076064,15.63208442,.00312234,50.1854,70.3043,340.8172,19.1625,0,U,52794,999,22844,.64285807E-3,.61494E-3,0
CZ-2C R/B,2022-132E,2026-07-04T23:16:04.934784,15.73868988,.00117336,97.2894,193.8141,24.6570,335.5253,0,U,54039,999,20874,.67987844E-3,.9716E-3,0
GSLV R/B,2022-138AN,2026-07-04T13:27:51.079968,14.97345531,.00242165,87.3812,127.1501,86.8647,273.5356,0,U,54149,999,20141,.36484534E-3,.4287E-4,0
XRISM,2023-137A,2026-07-04T14:41:57.738912,15.12619055,.00077833,31.0013,246.7174,139.7962,220.3253,0,U,57800,999,15550,.3462449E-3,.6302E-4,0
ACS3,2024-077B,2026-07-05T05:09:21.672288,13.95101381,.01114469,97.1715,100.9985,47.4555,313.5956,0,U,59588,999,11055,.48149725E-1,.68943E-3,0
SPACEMOBILE-003,2024-163A,2026-06-26T19:29:47.816736,15.20822722,.0005991,52.9744,265.1828,141.0621,219.0806,0,U,61045,999,9923,.90246E-4,.1689E-4,0
SPACEMOBILE-005,2024-163B,2026-07-05T03:24:01.741248,15.20856971,.00088792,52.9797,226.8129,163.0841,197.0451,0,U,61046,999,10049,.67026872E-3,.14705E-3,0
SPACEMOBILE-001,2024-163C,2026-07-05T06:31:15.523680,15.20848620,.00075573,52.9753,225.9334,162.6744,197.4509,0,U,61047,999,10051,.18398451E-3,.379E-4,0
SPACEMOBILE-002,2024-163D,2026-07-05T02:59:04.762752,15.20884485,.00071485,52.9730,226.6518,161.4282,198.6975,0,U,61048,999,10049,.85037634E-3,.18765E-3,0
