H-2A R/B                
1 28932U 06002B   26186.11384383  .00013614  00000+0  64495-3 0  9991
2 28932  98.2589 343.5691 0050176 200.3885 159.5344 15.18330135112244
RESURS-DK 1             
1 29228U 06021A   26186.27943596  .00002947  00000+0  17118-3 0  9992
2 29228  69.9335 292.7185 0006696 282.2726  77.7691 15.13295412105310
CZ-4B R/B               
1 29507U 06046C   26186.18440029  .00006696  00000+0  32917-3 0  9991
2 29507  97.5438 230.7362 0031622 217.3905 142.5128 15.17926951 77862
CZ-2C R/B               
1 31114U 07010B   26186.23560770  .00000116  00000+0  72508-4 0  9994
2 31114  98.4113 293.7052 0058045 313.2684  46.3658 14.20280281996403
COSMO-SKYMED 1          
1 31598U 07023A   26186.31417243  .00002817  00000+0  24881-3 0  9999
2 31598  97.8851  18.3232 0001100  84.0232 276.1115 14.97190320 32505
COSMOS 2428             
1 31792U 07029A   26185.63029015  .00000121  00000+0  90553-4 0  9997
2 31792  70.9380 317.8526 0007150 101.6390 258.5534 14.12929556980616
SL-16 R/B               
1 31793U 07029B   26186.19967786 -.00000201  00000+0 -79401-4 0  9996
2 31793  70.9761 285.3644 0002298 260.3231 115.5050 14.14851907981998
KORONAS-FOTON           
1 33504U 09003A   26185.87909688  .00019038  00000+0  38655-3 0  9994
2 33504  82.4302 153.7985 0012587  93.7739 266.4950 15.46116868963832
CZ-2C R/B               
1 37731U 11030B   26185.62265258  .00001771  00000+0  22760-3 0  9999
2 37731  97.8663 140.6952 0051528 331.3224 202.2500 14.81517665807402
H-2A R/B                
1 38341U 12025E   26186.01818969  .00004180  00000+0  37404-3 0  9997
2 38341  98.4840 162.6353 0042212 289.3719  70.2939 14.95810124765755
SHIJIAN-16 (SJ-16)      
1 39358U 13057A   26186.33657318  .00008120  00000+0  78782-3 0  9998
2 39358  74.9741 322.3057 0016183 188.6042 171.4872 14.92659894689057
SL-4 R/B                
1 39679U 14021B   26185.94934810  .00017435  00000+0  35129-3 0  9994
2 39679  51.6060 123.7321 0090245 170.8310 189.4349 15.42324553674350
ALOS-2                  
1 39766U 14029A   26186.06187343  .00000552  00000+0  80746-4 0  9992
2 39766  97.9228 282.9699 0001665  89.5658 270.5745 14.79477316654222
YAOGAN-29               
1 41038U 15069A   26186.32663736  .00000885  00000+0  11528-3 0  9996
2 41038  98.0017 214.9878 0001540  28.4877 331.6420 14.83102756573313
ASTRO-H (HITOMI)        
1 41337U 16012A   26185.74339819  .00004247  00000+0  24502-3 0  9996
2 41337  31.0003 320.7997 0009565  69.4595 290.7069 15.10599781569949
HXMT (HUIYAN)           
1 42758U 17034A   26186.15694615  .00007269  00000+0  35113-3 0  9990
2 42758  43.0140  82.9714 0032810 259.6248 100.0902 15.18624619500393
SAOCOM 1A               
1 43641U 18076A   26186.29637007  .00000608  00000+0  82853-4 0  9990
2 43641  97.8885  12.7810 0001570  80.3214 279.8176 14.82163382418781
H-2A R/B                
1 43682U 18084L   26185.60947727  .00042251  00000+0  86127-3 0  9998
2 43682  98.8545  68.3133 0021313 339.4411  20.5974 15.45870427423811
SAOCOM 1B               
1 46265U 20059A   26186.32759757  .00000101  00000+0  19278-4 0  9999
2 46265  97.8888  11.9072 0001539  81.5209 278.6179 14.82151089316173
CSS (TIANHE)            
1 48274U 21035A   26186.21532296  .00017226  00000+0  22739-3 0  9992
2 48274  41.4675 212.3196 0002888 272.5684  87.4823 15.57977003295987
COSMOS 2550             
1 48865U 21056A   26186.21704690  .00007295  00000+0  22787-3 0  9998
2 48865  67.1430  45.3665 0008395 273.0382  86.9812 15.33755958281481
CZ-2C R/B               
1 52794U 22058K   26186.08494301  .00061494  00000+0  64286-3 0  9998
2 52794  50.1854  70.3043 0031223 340.8172  19.1625 15.63208442228444
CZ-2C R/B               
1 54039U 22132E   26185.96950156  .00097160  00000+0  67988-3 0  9997
2 54039  97.2894 193.8141 0011733  24.6570 335.5253 15.73868988208748
GSLV R/B                
1 54149U 22138AN  26185.56100787  .00004287  00000+0  36485-3 0  9994
2 54149  87.3812 127.1501 0024216  86.8647 273.5356 14.97345531201416
XRISM                   
1 57800U 23137A   26185.61247383  .00006302  00000+0  34624-3 0  9994
2 57800  31.0013 246.7174 0007783 139.7962 220.3253 15.12619055155501
ACS3                    
1 59588U 24077B   26186.21483417  .00068943  00000+0  48150-1 0  9996
2 59588  97.1715 100.9985 0111446  47.4555 313.5956 13.95101381110552
SPACEMOBILE-003         
1 61045U 24163A   26177.81235899  .00001689  00000+0  90246-4 0  9998
2 61045  52.9744 265.1828 0005991 141.0621 219.0806 15.20822722 99230
SPACEMOBILE-005         
1 61046U 24163B   26186.14168682  .00014705  00000+0  67027-3 0  9993
2 61046  52.9797 226.8129 0008879 163.0841 197.0451 15.20856971100498
SPACEMOBILE-001         
1 61047U 24163C   26186.27170745  .00003790  00000+0  18398-3 0  9990
2 61047  52.9753 225.9334 0007557 162.6744 197.4509 15.20848620100511
SPACEMOBILE-002         
1 61048U 24163D   26186.12436068  .00018765  00000+0  85038-3 0  9991
2 61048  52.9730 226.6518 0007148 161.4282 198.6975 15.20884485100495
